NORAD_CAT_ID,OBJECT_NAME,OBJECT_TYPE,EPOCH,MEAN_MOTION,ECCENTRICITY,INCLINATION,RA_OF_ASC_NODE,ARG_OF_PERICENTER,MEAN_ANOMALY,BSTAR,MEAN_MOTION_DOT,MEAN_MOTION_DDOT,TLE_LINE0,TLE_LINE1,TLE_LINE2,SEMIMAJOR_AXIS,PERIOD,APOGEE,PERIGEE,DECAYED
52455.0,STARLINK-3890,PAYLOAD,2022-09-06 06:00:00,15.08808293,0.0001412,53.2182,57.2266,72.4791,117.9233,0.0013737,0.00021623,0.0,0 STARLINK-3890,1 52455U 22049E   22249.25001157  .00021623  00000-0  13737-2 0  9995,2 52455  53.2182  57.2266 0001412  72.4791 117.9233 15.08808293 18975,6917.977,95.44,540.819,538.865,0.0
52455.0,STARLINK-3890,PAYLOAD,2022-09-06 14:00:01,15.08837639,0.0001484,53.2184,55.7307,73.9415,128.0184,-0.0010164999999999,-0.00016428,0.0,0 STARLINK-3890,1 52455U 22049E   22249.58334491 -.00016428  00000-0 -10165-2 0  9992,2 52455  53.2184  55.7307 0001484  73.9415 128.0184 15.08837639  1307,6917.888000000001,95.438,540.779,538.726,0.0
52455.0,STARLINK-3890,PAYLOAD,2022-09-06 22:00:00,15.08808932,0.0001531999999999,53.2183,54.2356,64.8801,148.672,0.0034404,0.00054845,0.0,0 STARLINK-3890,1 52455U 22049E   22249.91667824  .00054845  00000-0  34404-2 0  9993,2 52455  53.2183  54.2356 0001532  64.8801 148.6720 15.08808932  1304,6917.975,95.44,540.9,538.781,0.0
52455.0,STARLINK-3890,PAYLOAD,2022-09-07 04:00:00,15.08847173,0.0001445,53.2184,53.1119,71.2169,61.0162,-0.00094007,-0.00015221,0.0,0 STARLINK-3890,1 52455U 22049E   22250.16667824 -.00015221  00000-0 -94007-3 0  9995,2 52455  53.2184  53.1119 0001445  71.2169  61.0162 15.08847173 19107,6917.858,95.437,540.7230000000002,538.724,0.0
52455.0,STARLINK-3890,PAYLOAD,2022-09-07 14:00:01,15.08820946,0.000135,53.2182,51.2427,71.6506,165.0251,0.0011898,0.00018688,0.0,0 STARLINK-3890,1 52455U 22049E   22250.58334491  .00018688  00000-0  11898-2 0  9996,2 52455  53.2182  51.2427 0001350  71.6506 165.0251 15.08820946 19170,6917.939,95.439,540.738,538.87,0.0
52455.0,STARLINK-3890,PAYLOAD,2022-09-07 22:00:00,15.08806148,0.0001388,53.2182,49.7464,62.8804,185.3746,0.0029980999999999,0.00047706,0.0,0 STARLINK-3890,1 52455U 22049E   22250.91667824  .00047706  00000-0  29981-2 0  9997,2 52455  53.2182  49.7464 0001388  62.8804 185.3746 15.08806148  1305,6917.984,95.44,540.809,538.889,0.0
52455.0,STARLINK-3890,PAYLOAD,2022-09-08 14:00:01,15.08856256,0.0001307,53.2184,46.7526,71.7899,199.6288,-0.0012866,-0.00020715,0.0,0 STARLINK-3890,1 52455U 22049E   22251.58334491 -.00020715  00000-0 -12866-2 0  9999,2 52455  53.2184  46.7526 0001307  71.7899 199.6288 15.08856256  1301,6917.831,95.437,540.6,538.7919999999998,0.0
52455.0,STARLINK-3890,PAYLOAD,2022-09-08 22:00:00,15.08855173,0.000137,53.218,45.2571,62.0319,221.0176,-0.00031336,-5.274e-05,0.0,0 STARLINK-3890,1 52455U 22049E   22251.91667824 -.00005274  00000-0 -31336-3 0  9992,2 52455  53.2180  45.2571 0001370  62.0319 221.0176 15.08855173  1304,6917.834,95.437,540.6469999999998,538.751,0.0
52455.0,STARLINK-3890,PAYLOAD,2022-09-09 14:00:01,15.08870152,0.0001299,53.2182,42.2635,69.9569,236.3069,-0.0040609,-0.00064392,0.0,0 STARLINK-3890,1 52455U 22049E   22252.58334491 -.00064392  00000-0 -40609-2 0  9995,2 52455  53.2182  42.2635 0001299  69.9569 236.3069 15.08870152  1301,6917.788000000001,95.436,540.552,538.755,0.0
52455.0,STARLINK-3890,PAYLOAD,2022-09-09 22:00:00,15.08820008,0.0001293,53.2178,40.7679,60.3758,257.4919,0.0019429,0.00030752,0.0,0 STARLINK-3890,1 52455U 22049E   22252.91667824  .00030752  00000-0  19429-2 0  9998,2 52455  53.2178  40.7679 0001293  60.3758 257.4919 15.08820008  1309,6917.941,95.439,540.701,538.9119999999998,0.0
52455.0,STARLINK-3890,PAYLOAD,2022-09-10 06:00:02,15.08817556,0.0001193,53.218,39.2697,70.5459,258.9841,0.003235,0.00051542,0.0,0 STARLINK-3890,1 52455U 22049E   22253.25002315  .00051542  00000-0  32350-2 0  9992,2 52455  53.2180  39.2697 0001193  70.5459 258.9841 15.08817556 19577,6917.949000000001,95.439,540.639,538.989,0.0
52455.0,STARLINK-3890,PAYLOAD,2022-09-10 14:00:01,15.08876831,0.0001320999999999,53.2182,37.7745,67.8821,273.1718,-0.0037008,-0.00058764,0.0,0 STARLINK-3890,1 52455U 22049E   22253.58334491 -.00058764  00000-0 -37008-2 0  9991,2 52455  53.2182  37.7745 0001321  67.8821 273.1718 15.08876831  1306,6917.768,95.435,540.547,538.719,0.0
52455.0,STARLINK-3890,PAYLOAD,2022-09-10 22:00:00,15.08830926,0.0001437,53.2179,36.2787,61.393,291.2792,0.00041057,6.251e-05,0.0,0 STARLINK-3890,1 52455U 22049E   22253.91667824  .00006251  00000-0  41057-3 0  9999,2 52455  53.2179  36.2787 0001437  61.3930 291.2792 15.08830926  1308,6917.908,95.438,540.7669999999998,538.779,0.0
52455.0,STARLINK-3890,PAYLOAD,2022-09-11 14:00:01,15.08838295,0.0001565999999999,53.2183,33.2856,68.0121,307.8252,-0.0010745999999999,-0.00017349,0.0,0 STARLINK-3890,1 52455U 22049E   22254.58334491 -.00017349  00000-0 -10746-2 0  9996,2 52455  53.2183  33.2856 0001566  68.0121 307.8252 15.08838295  1308,6917.886,95.438,540.8340000000002,538.6669999999998,0.0
52455.0,STARLINK-3890,PAYLOAD,2022-09-11 22:00:00,15.0884118,0.0001541999999999,53.2183,31.7897,60.5213,326.8961,-0.00039413,-6.555e-05,0.0,0 STARLINK-3890,1 52455U 22049E   22254.91667824 -.00006555  00000-0 -39413-3 0  9992,2 52455  53.2183  31.7897 0001542  60.5213 326.8961 15.08841180  1304,6917.877,95.437,540.809,538.675,0.0
52455.0,STARLINK-3890,PAYLOAD,2022-09-12 06:00:00,15.08802144,0.0001391,53.2186,30.2917,68.1288,330.8969,0.0031709,0.00050486,0.0,0 STARLINK-3890,1 52455U 22049E   22255.25001157  .00050486  00000-0  31709-2 0  9990,2 52455  53.2186  30.2917 0001391  68.1288 330.8969 15.08802144 19873,6917.996,95.44,540.823,538.899,0.0
52455.0,STARLINK-3890,PAYLOAD,2022-09-12 14:00:01,15.08842756,0.0001515,53.2188,28.7969,63.0342,347.5503,-0.00093985,-0.00015216,0.0,0 STARLINK-3890,1 52455U 22049E   22255.58334491 -.00015216  00000-0 -93985-3 0  9995,2 52455  53.2188  28.7969 0001515  63.0342 347.5503 15.08842756  1308,6917.871999999999,95.437,540.785,538.689,0.0
52455.0,STARLINK-3890,PAYLOAD,2022-09-12 22:00:00,15.08848978,0.0001518,53.2188,27.3009,55.8657,6.3127,0.0010576,0.00016588,0.0,0 STARLINK-3890,1 52455U 22049E   22255.91667824  .00016588  00000-0  10576-2 0  9996,2 52455  53.2188  27.3009 0001518  55.8657   6.3127 15.08848978  1303,6917.853,95.437,540.768,538.668,0.0
52455.0,STARLINK-3890,PAYLOAD,2022-09-13 14:00:01,15.0887088,0.0001436,53.2193,24.3082,56.4408,28.9552,-0.0034833,-0.00055345,0.0,0 STARLINK-3890,1 52455U 22049E   22256.58334491 -.00055345  00000-0 -34833-2 0  9999,2 52455  53.2193  24.3082 0001436  56.4408  28.9552 15.08870880  1306,6917.786,95.436,540.644,538.658,0.0
52455.0,STARLINK-3890,PAYLOAD,2022-09-13 16:00:00,15.0885505,0.0001482,53.2191,23.9353,54.3722,123.9305,-0.0021223,-0.00033919,0.0,0 STARLINK-3890,1 52455U 22049E   22256.66667824 -.00033919  00000-0 -21223-2 0  9999,2 52455  53.2191  23.9353 0001482  54.3722 123.9305 15.08855050 20098,6917.834,95.437,540.725,538.674,0.0
52455.0,STARLINK-3890,PAYLOAD,2022-09-13 22:00:00,15.08847,0.0001465999999999,53.2191,22.8122,50.8604,46.1345,-0.0026566999999999,-0.00042329,0.0,0 STARLINK-3890,1 52455U 22049E   22256.91667824 -.00042329  00000-0 -26567-2 0  9998,2 52455  53.2191  22.8122 0001466  50.8604  46.1345 15.08847000  1301,6917.859,95.437,540.738,538.71,0.0
52455.0,STARLINK-3890,PAYLOAD,2022-09-14 14:00:01,15.088329000000002,0.0001559,53.2182,19.8209,55.3632,64.7851,0.0003357,5.058e-05,0.0,0 STARLINK-3890,1 52455U 22049E   22257.58334491  .00005058  00000-0  33570-3 0  9992,2 52455  53.2182  19.8209 0001559  55.3632  64.7851 15.08832900 20220,6917.901999999999,95.438,540.846,538.689,0.0
52455.0,STARLINK-3890,PAYLOAD,2022-09-14 22:00:00,15.08858202,0.0001567,53.2196,18.3234,53.5323,78.2028,-0.0028058,-0.00044688,0.0,0 STARLINK-3890,1 52455U 22049E   22257.91667824 -.00044688  00000-0 -28058-2 0  9996,2 52455  53.2196  18.3234 0001567  53.5323  78.2028 15.08858202  1300,6917.825,95.436,540.774,538.606,0.0
52455.0,STARLINK-3890,PAYLOAD,2022-09-15 14:00:01,15.08850839,0.0001583,53.2197,15.331,57.0552,97.8703,-0.00041927,-6.957e-05,0.0,0 STARLINK-3890,1 52455U 22049E   22258.58334491 -.00006957  00000-0 -41927-3 0  9999,2 52455  53.2197  15.3310 0001583  57.0552  97.8703 15.08850839  1309,6917.847,95.437,540.807,538.617,0.0
52455.0,STARLINK-3890,PAYLOAD,2022-09-15 18:05:09,15.08847026,0.0001493,53.2197,14.5656,56.7378,303.3758,0.00056977,8.793e-05,0.0,0 STARLINK-3890,1 52455U 22049E   22258.75357888  .00008793  00000-0  56977-3 0  9992,2 52455  53.2197  14.5656 0001493  56.7378 303.3758 15.08847026 20248,6917.859,95.437,540.757,538.691,0.0
52455.0,STARLINK-3890,PAYLOAD,2022-09-16 11:34:23,15.08843128,0.0001431,53.2191,11.2963,59.4205,300.6928,0.00012068,1.633e-05,0.0,0 STARLINK-3890,1 52455U 22049E   22259.48221714  .00001633  00000-0  12068-3 0  9990,2 52455  53.2191  11.2963 0001431  59.4205 300.6928 15.08843128 20358,6917.871,95.437,540.726,538.746,0.0
52455.0,STARLINK-3890,PAYLOAD,2022-09-16 14:45:09,15.08846732,0.0001450999999999,53.2193,10.7014,58.3717,301.7417,0.00024404,3.599e-05,0.0,0 STARLINK-3890,1 52455U 22049E   22259.61469634  .00003599  00000-0  24404-3 0  9990,2 52455  53.2193  10.7014 0001451  58.3717 301.7417 15.08846732 20538,6917.86,95.437,540.729,538.721,0.0
52455.0,STARLINK-3890,PAYLOAD,2022-09-17 00:17:29,15.08833906,0.0001609,53.2194,8.9166,58.9408,301.1742,-5.8461e-05,-1.218e-05,0.0,0 STARLINK-3890,1 52455U 22049E   22260.01214169 -.00001218  00000-0 -58461-4 0  9996,2 52455  53.2194   8.9166 0001609  58.9408 301.1742 15.08833906 20594,6917.899,95.438,540.877,538.651,0.0
52455.0,STARLINK-3890,PAYLOAD,2022-09-17 13:00:35,15.08823501,0.000153,53.2193,6.5382,56.9174,303.1965,-0.0001739,-3.053e-05,0.0,0 STARLINK-3890,1 52455U 22049E   22260.54207216 -.00003053  00000-0 -17390-3 0  9993,2 52455  53.2193   6.5382 0001530  56.9174 303.1965 15.08823501 20676,6917.931,95.439,540.854,538.737,0.0
